[{"OBJECT_NAME":"STARLINK-4497","OBJECT_ID":"2022-097Z","EPOCH":"2026-03-09T12:26:16.118304","MEAN_MOTION":15.08861686,"ECCENTRICITY":0.00012612,"INCLINATION":53.2164,"RA_OF_ASC_NODE":114.8896,"ARG_OF_PERICENTER":91.3965,"MEAN_ANOMALY":268.7172,"EPHEMERIS_TYPE":0,"CLASSIFICATION_TYPE":"U","NORAD_CAT_ID":53411,"ELEMENT_SET_NO":999,"REV_AT_EPOCH":19862,"BSTAR":0.00014200501,"MEAN_MOTION_DOT":1.974e-5,"MEAN_MOTION_DDOT":0},{"OBJECT_NAME":"OBJECT B","OBJECT_ID":"2023-069B","EPOCH":"2026-03-09T13:07:46.108416","MEAN_MOTION":15.09579619,"ECCENTRICITY":0.00116524,"INCLINATION":41.0081,"RA_OF_ASC_NODE":274.4606,"ARG_OF_PERICENTER":279.7432,"MEAN_ANOMALY":80.2064,"EPHEMERIS_TYPE":0,"CLASSIFICATION_TYPE":"U","NORAD_CAT_ID":56732,"ELEMENT_SET_NO":999,"REV_AT_EPOCH":15516,"BSTAR":0.00042419683,"MEAN_MOTION_DOT":6.772e-5,"MEAN_MOTION_DDOT":0}]
